[
  {
    "COMMENT": "GENERATED VIA SPACETRACK.ORG API",
    "ORIGINATOR": "18 SPCS",
    "NORAD_CAT_ID": "33105",
    "OBJECT_NAME": "JASON 2",
    "OBJECT_TYPE": "PAYLOAD",
    "CLASSIFICATION_TYPE": "U",
    "INTLDES": "08032A",
    "EPOCH": "2023-06-12 09:30:01",
    "EPOCH_MICROSECONDS": "528992",
    "MEAN_MOTION": "12.87660008",
    "ECCENTRICITY": "0.0008351",
    "INCLINATION": "66.0384",
    "RA_OF_ASC_NODE": "205.5197",
    "ARG_OF_PERICENTER": "269.8903",
    "MEAN_ANOMALY": "101.8085",
    "EPHEMERIS_TYPE": "0",
    "ELEMENT_SET_NO": "999",
    "REV_AT_EPOCH": "70206",
    "BSTAR": "0.000023303",
    "MEAN_MOTION_DOT": "-0.00000056",
    "MEAN_MOTION_DDOT": "0",
    "FILE": "3931100",
    "TLE_LINE0": "0 JASON 2",
    "TLE_LINE1": "1 33105U 08032A   23163.39585103 -.00000056  00000-0  23303-4 0  9991",
    "TLE_LINE2": "2 33105  66.0384 205.5197 0008351 269.8903 101.8085 12.87660008702060",
    "OBJECT_ID": "2008-032A",
    "OBJECT_NUMBER": "33105",
    "SEMIMAJOR_AXIS": "7688.962",
    "PERIOD": "111.831",
    "APOGEE": "1317.248",
    "PERIGEE": "1304.406",
    "DECAYED": "0"
  },
  {
    "COMMENT": "GENERATED VIA SPACETRACK.ORG API",
    "ORIGINATOR": "18 SPCS",
    "NORAD_CAT_ID": "33105",
    "OBJECT_NAME": "JASON 2",
    "OBJECT_TYPE": "PAYLOAD",
    "CLASSIFICATION_TYPE": "U",
    "INTLDES": "08032A",
    "EPOCH": "2023-06-12 09:30:01",
    "EPOCH_MICROSECONDS": "528992",
    "MEAN_MOTION": "12.87660008",
    "ECCENTRICITY": "0.0008351",
    "INCLINATION": "66.0384",
    "RA_OF_ASC_NODE": "205.5197",
    "ARG_OF_PERICENTER": "269.8903",
    "MEAN_ANOMALY": "101.8085",
    "EPHEMERIS_TYPE": "0",
    "ELEMENT_SET_NO": "999",
    "REV_AT_EPOCH": "70197",
    "BSTAR": "0.000023303",
    "MEAN_MOTION_DOT": "-0.00000056",
    "MEAN_MOTION_DDOT": "0",
    "FILE": "3931287",
    "TLE_LINE0": "0 JASON 2",
    "TLE_LINE1": "1 33105U 08032A   23163.39585103 -.00000056  00000-0  23303-4 0  9991",
    "TLE_LINE2": "2 33105  66.0384 205.5197 0008351 269.8903 101.8085 12.87660008701979",
    "OBJECT_ID": "2008-032A",
    "OBJECT_NUMBER": "33105",
    "SEMIMAJOR_AXIS": "7688.962",
    "PERIOD": "111.831",
    "APOGEE": "1317.248",
    "PERIGEE": "1304.406",
    "DECAYED": "0"
  },
  {
    "COMMENT": "GENERATED VIA SPACETRACK.ORG API",
    "ORIGINATOR": "18 SPCS",
    "NORAD_CAT_ID": "33105",
    "OBJECT_NAME": "JASON 2",
    "OBJECT_TYPE": "PAYLOAD",
    "CLASSIFICATION_TYPE": "U",
    "INTLDES": "08032A",
    "EPOCH": "2023-06-12 21:30:53",
    "EPOCH_MICROSECONDS": "870112",
    "MEAN_MOTION": "12.87660063",
    "ECCENTRICITY": "0.0008351",
    "INCLINATION": "66.0383",
    "RA_OF_ASC_NODE": "204.4672",
    "ARG_OF_PERICENTER": "269.8985",
    "MEAN_ANOMALY": "262.1676",
    "EPHEMERIS_TYPE": "0",
    "ELEMENT_SET_NO": "999",
    "REV_AT_EPOCH": "70203",
    "BSTAR": "0.00007396",
    "MEAN_MOTION_DOT": "-0.00000044",
    "MEAN_MOTION_DDOT": "0",
    "FILE": "3931605",
    "TLE_LINE0": "0 JASON 2",
    "TLE_LINE1": "1 33105U 08032A   23163.89645683 -.00000044  00000-0  73960-4 0  9997",
    "TLE_LINE2": "2 33105  66.0383 204.4672 0008351 269.8985 262.1676 12.87660063702030",
    "OBJECT_ID": "2008-032A",
    "OBJECT_NUMBER": "33105",
    "SEMIMAJOR_AXIS": "7688.962",
    "PERIOD": "111.831",
    "APOGEE": "1317.248",
    "PERIGEE": "1304.406",
    "DECAYED": "0"
  },
  {
    "COMMENT": "GENERATED VIA SPACETRACK.ORG API",
    "ORIGINATOR": "18 SPCS",
    "NORAD_CAT_ID": "33105",
    "OBJECT_NAME": "JASON 2",
    "OBJECT_TYPE": "PAYLOAD",
    "CLASSIFICATION_TYPE": "U",
    "INTLDES": "08032A",
    "EPOCH": "2023-06-13 02:22:29",
    "EPOCH_MICROSECONDS": "838144",
    "MEAN_MOTION": "12.87660097",
    "ECCENTRICITY": "0.0008355",
    "INCLINATION": "66.0383",
    "RA_OF_ASC_NODE": "204.0414",
    "ARG_OF_PERICENTER": "269.8925",
    "MEAN_ANOMALY": "120.7834",
    "EPHEMERIS_TYPE": "0",
    "ELEMENT_SET_NO": "999",
    "REV_AT_EPOCH": "70206",
    "BSTAR": "0.000092272",
    "MEAN_MOTION_DOT": "-0.00000039",
    "MEAN_MOTION_DDOT": "0",
    "FILE": "3932134",
    "TLE_LINE0": "0 JASON 2",
    "TLE_LINE1": "1 33105U 08032A   23164.09895646 -.00000039  00000-0  92272-4 0  9997",
    "TLE_LINE2": "2 33105  66.0383 204.0414 0008355 269.8925 120.7834 12.87660097702063",
    "OBJECT_ID": "2008-032A",
    "OBJECT_NUMBER": "33105",
    "SEMIMAJOR_AXIS": "7688.961",
    "PERIOD": "111.831",
    "APOGEE": "1317.251",
    "PERIGEE": "1304.402",
    "DECAYED": "0"
  },
  {
    "COMMENT": "GENERATED VIA SPACETRACK.ORG API",
    "ORIGINATOR": "18 SPCS",
    "NORAD_CAT_ID": "33105",
    "OBJECT_NAME": "JASON 2",
    "OBJECT_TYPE": "PAYLOAD",
    "CLASSIFICATION_TYPE": "U",
    "INTLDES": "08032A",
    "EPOCH": "2023-06-13 06:17:58",
    "EPOCH_MICROSECONDS": "100064",
    "MEAN_MOTION": "12.87660099",
    "ECCENTRICITY": "0.0008358",
    "INCLINATION": "66.0382",
    "RA_OF_ASC_NODE": "203.6976",
    "ARG_OF_PERICENTER": "269.8734",
    "MEAN_ANOMALY": "158.7443",
    "EPHEMERIS_TYPE": "0",
    "ELEMENT_SET_NO": "999",
    "REV_AT_EPOCH": "70208",
    "BSTAR": "0.000094922",
    "MEAN_MOTION_DOT": "-0.00000038",
    "MEAN_MOTION_DDOT": "0",
    "FILE": "3932371",
    "TLE_LINE0": "0 JASON 2",
    "TLE_LINE1": "1 33105U 08032A   23164.26247801 -.00000038  00000-0  94922-4 0  9993",
    "TLE_LINE2": "2 33105  66.0382 203.6976 0008358 269.8734 158.7443 12.87660099702082",
    "OBJECT_ID": "2008-032A",
    "OBJECT_NUMBER": "33105",
    "SEMIMAJOR_AXIS": "7688.961",
    "PERIOD": "111.831",
    "APOGEE": "1317.253",
    "PERIGEE": "1304.400",
    "DECAYED": "0"
  },
  {
    "COMMENT": "GENERATED VIA SPACETRACK.ORG API",
    "ORIGINATOR": "18 SPCS",
    "NORAD_CAT_ID": "33105",
    "OBJECT_NAME": "JASON 2",
    "OBJECT_TYPE": "PAYLOAD",
    "CLASSIFICATION_TYPE": "U",
    "INTLDES": "08032A",
    "EPOCH": "2023-06-14 00:39:54",
    "EPOCH_MICROSECONDS": "804960",
    "MEAN_MOTION": "12.87660131",
    "ECCENTRICITY": "0.0008364",
    "INCLINATION": "66.0381",
    "RA_OF_ASC_NODE": "202.0886",
    "ARG_OF_PERICENTER": "269.877",
    "MEAN_ANOMALY": "105.7172",
    "EPHEMERIS_TYPE": "0",
    "ELEMENT_SET_NO": "999",
    "REV_AT_EPOCH": "70218",
    "BSTAR": "0.00012727",
    "MEAN_MOTION_DOT": "-0.0000003",
    "MEAN_MOTION_DDOT": "0",
    "FILE": "3932965",
    "TLE_LINE0": "0 JASON 2",
    "TLE_LINE1": "1 33105U 08032A   23165.02771765 -.00000030  00000-0  12727-3 0  9993",
    "TLE_LINE2": "2 33105  66.0381 202.0886 0008364 269.8770 105.7172 12.87660131702180",
    "OBJECT_ID": "2008-032A",
    "OBJECT_NUMBER": "33105",
    "SEMIMAJOR_AXIS": "7688.961",
    "PERIOD": "111.831",
    "APOGEE": "1317.257",
    "PERIGEE": "1304.395",
    "DECAYED": "0"
  },
  {
    "COMMENT": "GENERATED VIA SPACETRACK.ORG API",
    "ORIGINATOR": "18 SPCS",
    "NORAD_CAT_ID": "33105",
    "OBJECT_NAME": "JASON 2",
    "OBJECT_TYPE": "PAYLOAD",
    "CLASSIFICATION_TYPE": "U",
    "INTLDES": "08032A",
    "EPOCH": "2023-06-14 20:07:09",
    "EPOCH_MICROSECONDS": "122592",
    "MEAN_MOTION": "12.87660155",
    "ECCENTRICITY": "0.0008365",
    "INCLINATION": "66.0381",
    "RA_OF_ASC_NODE": "200.3842",
    "ARG_OF_PERICENTER": "269.8724",
    "MEAN_ANOMALY": "262.8677",
    "EPHEMERIS_TYPE": "0",
    "ELEMENT_SET_NO": "999",
    "REV_AT_EPOCH": "70228",
    "BSTAR": "0.00012395",
    "MEAN_MOTION_DOT": "-0.00000031",
    "MEAN_MOTION_DDOT": "0",
    "FILE": "3933215",
    "TLE_LINE0": "0 JASON 2",
    "TLE_LINE1": "1 33105U 08032A   23165.83830003 -.00000031  00000-0  12395-3 0  9995",
    "TLE_LINE2": "2 33105  66.0381 200.3842 0008365 269.8724 262.8677 12.87660155702285",
    "OBJECT_ID": "2008-032A",
    "OBJECT_NUMBER": "33105",
    "SEMIMAJOR_AXIS": "7688.961",
    "PERIOD": "111.831",
    "APOGEE": "1317.258",
    "PERIGEE": "1304.394",
    "DECAYED": "0"
  },
  {
    "COMMENT": "GENERATED VIA SPACETRACK.ORG API",
    "ORIGINATOR": "18 SPCS",
    "NORAD_CAT_ID": "33105",
    "OBJECT_NAME": "JASON 2",
    "OBJECT_TYPE": "PAYLOAD",
    "CLASSIFICATION_TYPE": "U",
    "INTLDES": "08032A",
    "EPOCH": "2023-06-15 03:02:29",
    "EPOCH_MICROSECONDS": "567040",
    "MEAN_MOTION": "12.87660181",
    "ECCENTRICITY": "0.0008368",
    "INCLINATION": "66.038",
    "RA_OF_ASC_NODE": "199.7777",
    "ARG_OF_PERICENTER": "269.8477",
    "MEAN_ANOMALY": "159.8049",
    "EPHEMERIS_TYPE": "0",
    "ELEMENT_SET_NO": "999",
    "REV_AT_EPOCH": "70241",
    "BSTAR": "0.00012076",
    "MEAN_MOTION_DOT": "-0.00000032",
    "MEAN_MOTION_DDOT": "0",
    "FILE": "3933248",
    "TLE_LINE0": "0 JASON 2",
    "TLE_LINE1": "1 33105U 08032A   23166.12673110 -.00000032  00000-0  12076-3 0  9999",
    "TLE_LINE2": "2 33105  66.0380 199.7777 0008368 269.8477 159.8049 12.87660181702412",
    "OBJECT_ID": "2008-032A",
    "OBJECT_NUMBER": "33105",
    "SEMIMAJOR_AXIS": "7688.961",
    "PERIOD": "111.831",
    "APOGEE": "1317.260",
    "PERIGEE": "1304.392",
    "DECAYED": "0"
  },
  {
    "COMMENT": "GENERATED VIA SPACETRACK.ORG API",
    "ORIGINATOR": "18 SPCS",
    "NORAD_CAT_ID": "33105",
    "OBJECT_NAME": "JASON 2",
    "OBJECT_TYPE": "PAYLOAD",
    "CLASSIFICATION_TYPE": "U",
    "INTLDES": "08032A",
    "EPOCH": "2023-06-15 12:34:28",
    "EPOCH_MICROSECONDS": "225056",
    "MEAN_MOTION": "12.87660164",
    "ECCENTRICITY": "0.0008375",
    "INCLINATION": "66.038",
    "RA_OF_ASC_NODE": "198.9426",
    "ARG_OF_PERICENTER": "269.8504",
    "MEAN_ANOMALY": "200.9024",
    "EPHEMERIS_TYPE": "0",
    "ELEMENT_SET_NO": "999",
    "REV_AT_EPOCH": "70237",
    "BSTAR": "0.00011634",
    "MEAN_MOTION_DOT": "-0.00000033",
    "MEAN_MOTION_DDOT": "0",
    "FILE": "3933820",
    "TLE_LINE0": "0 JASON 2",
    "TLE_LINE1": "1 33105U 08032A   23166.52393779 -.00000033  00000-0  11634-3 0  9993",
    "TLE_LINE2": "2 33105  66.0380 198.9426 0008375 269.8504 200.9024 12.87660164702370",
    "OBJECT_ID": "2008-032A",
    "OBJECT_NUMBER": "33105",
    "SEMIMAJOR_AXIS": "7688.961",
    "PERIOD": "111.831",
    "APOGEE": "1317.266",
    "PERIGEE": "1304.387",
    "DECAYED": "0"
  }
]